LEMUR-2-GREENBERG       
1 42837U 17042N   26068.46200528  .00019778  00000+0  72539-3 0  9997
2 42837  97.3781 249.8007 0009157   4.0119 356.1192 15.27971352473146
STARLINK-36053          
1 66875U 25281AD  26068.14495709  .00022639  00000+0  83004-3 0  9990
2 66875  43.0015 346.4233 0001185 290.7240  69.3484 15.27566230 16043
